TISAT 1                 
1 36799U 10035E   26068.75703561  .00024554  00000+0  91005-3 0  9996
2 36799  98.0645   6.8512 0001343 159.3030 200.8262 15.27628633852505
STARLINK-36501          
1 67327U 26002Y   26068.10743919  .00027767  00000+0  10138-2 0  9994
2 67327  43.0019 328.2274 0001704 276.0429  84.0228 15.27611343 10990
